satname,norad_id,inclination_deg,eccentricity,mean_motion_rev_per_day,perigee_km,apogee_km,l1,l2
STARLINK-1234,45190,53.0403,0.0006835,15.7173617,349.3334860062987,358.53622823498245,1 45190U 20012N   26140.81957909  .00050287  00000+0  38314-3 0  9998,2 45190  53.0403 329.8517 0006835 165.6051 194.5162 15.71736170347197
STARLINK-1269,45197,53.1559,0.0002927,15.33288208,464.0064351663659,468.01299865444435,1 45197U 20012V   26140.48363000  .00024373  00000+0  75611-3 0  9999,2 45197  53.1559  65.6156 0002927  72.8838 287.2484 15.33288208345918
STARLINK-1154,45198,53.0421,0.0002106,15.57424958,393.68627726260365,396.5391700462069,1 45198U 20012W   26140.94223135  .00213645  00000+0  27916-2 0  9991,2 45198  53.0421  22.2625 0002106  75.6303 284.4941 15.57424958346517
STARLINK-1199,45201,53.1569,0.0002577,15.33280929,464.26763567909165,467.79512006104596,1 45201U 20012Z   26140.97573452  .00027461  00000+0  85035-3 0  9995,2 45201  53.1569  47.5828 0002577 120.0710 240.0548 15.33280929346232
STARLINK-1209,45206,53.0356,0.0009967,15.63218477,371.63305114435934,385.1014667341278,1 45206U 20012AE  26140.60948078  .00055448  00000+0  59503-3 0  9997,2 45206  53.0356 344.3899 0009967 159.5608 200.5806 15.63218477346127
STARLINK-1231,45212,53.0382,0.0003811,15.2657957,483.43043893267077,488.6623195043112,1 45212U 20012AL  26140.94451099  .00019061  00000+0  73000-3 0  9992,2 45212  53.0382  42.3706 0003811  50.3265 309.8068 15.26579570346243
STARLINK-1271,45217,53.1571,0.0002404,15.33411775,463.99678600834704,467.2872749662056,1 45217U 20012AR  26140.97527990  .00028232  00000+0  87023-3 0  9994,2 45217  53.1571  47.7278 0002404 108.0760 252.0504 15.33411775346233
STARLINK-1191,45222,53.1564,0.0004554,15.37096818,451.5877766147714,457.8111240537364,1 45222U 20012AW  26140.93541419  .00020032  00000+0  55274-3 0  9991,2 45222  53.1564  21.4137 0004554 124.1149 236.0287 15.37096818346604
STARLINK-1212,45223,53.0412,0.0004006,15.65137919,370.13769328508533,375.54657776847034,1 45223U 20012AX  26140.89885943  .00036307  00000+0  36468-3 0  9996,2 45223  53.0412 358.7588 0004006  96.9372 263.2098 15.65137919346902
STARLINK-1215,45225,53.1571,0.0003003,15.33452309,463.46627749686195,467.5765787487917,1 45225U 20012AZ  26139.93277544  .00029988  00000+0  92223-3 0  9991,2 45225  53.1571  26.8677 0003003 158.1448 201.9683 15.33452309346394
STARLINK-1221,45227,53.0655,0.0001986,15.44208851,432.35086776521166,435.0565308909863,1 45227U 20012BB  26140.80027787  .00011085  00000+0  24641-3 0  9991,2 45227  53.0655 287.2576 0001986 213.2131 146.8750 15.44208851347845
STARLINK-1222,45228,53.0539,0.0001002,15.53827823,404.882418454672,406.2418717633527,1 45228U 20012BC  26140.88524632  .00021304  00000+0  33217-3 0  9995,2 45228  53.0539 355.5089 0001002  57.9994 302.1113 15.53827823346838
STARLINK-1226,45229,53.1585,0.0003175,15.41862738,438.4469697257746,442.7768752915663,1 45229U 20012BD  26140.39152798  .00033206  00000+0  77678-3 0  9995,2 45229  53.1585  21.9108 0003175 134.2961 225.8306 15.41862738346446
STARLINK-1227,45230,53.1554,0.000345,15.42003803,437.84373114913706,442.5483809578136,1 45230U 20012BE  26140.92126611  .00025253  00000+0  59083-3 0  9994,2 45230  53.1554  19.5328 0003450 133.6955 226.4337 15.42003803346647
STARLINK-1246,45235,53.1554,0.0003151,15.33416912,463.47027592385894,467.7832158365118,1 45235U 20012BK  26140.94704779  .00017247  00000+0  53671-3 0  9999,2 45235  53.1554  63.0870 0003151 115.2274 244.9055 15.33416912346041
STARLINK-1270,45237,53.0429,0.0003409,15.58641247,389.2807859081722,393.8963848122712,1 45237U 20012BM  26140.91348388  .00053420  00000+0  68513-3 0  9992,2 45237  53.0429 359.3444 0003409 130.3635 229.7675 15.58641247346896
STARLINK-1279,45360,53.0365,0.0009248,15.71842315,347.40624038244823,359.85731991821376,1 45360U 20019A   26140.92522719  .00052046  00000+0  39410-3 0  9996,2 45360  53.0365 104.1243 0009248  50.6512 309.5324 15.71842315341987
STARLINK-1301,45361,53.0374,0.0006518,15.74068454,342.8996820319553,351.66693994936213,1 45361U 20019B   26140.61184648  .00056257  00000+0  38740-3 0  9991,2 45361  53.0374 108.6215 0006518  67.4725 292.6982 15.74068454341906
STARLINK-1262,45366,53.1527,0.0003626,15.32415294,466.12594053513203,471.09120042284394,1 45366U 20019G   26140.84082157  .00027762  00000+0  88306-3 0  9995,2 45366  53.1527 189.9102 0003626  16.3196 343.7922 15.32415294340803
STARLINK-1273,45367,53.0435,0.0006967,15.54475035,398.95417602474663,408.40395853289374,1 45367U 20019H   26140.38354874  .00050434  00000+0  75498-3 0  9993,2 45367  53.0435 170.9843 0006967 354.8813   5.2124 15.54475035341011
STARLINK-1277,45369,53.0428,0.0006821,15.60782229,380.78290979307985,390.0097219425861,1 45369U 20019K   26140.47884648  .00053885  00000+0  63655-3 0  9997,2 45369  53.0428 165.4449 0006821 345.1527  14.9284 15.60782229341107
STARLINK-1281,45370,53.1567,0.0004664,15.33288964,462.81535822434853,469.19957618335684,1 45370U 20019L   26140.86322826  .00014815  00000+0  46458-3 0  9999,2 45370  53.1567 189.5453 0004664  13.7534 346.3594 15.33288964340815
STARLINK-1300,45374,53.1572,0.0004283,15.33700193,461.8531818692545,467.7148280020838,1 45374U 20019Q   26140.55462965  .00023287  00000+0  71367-3 0  9998,2 45374  53.1572 190.9470 0004283  28.4453 331.6782 15.33700193340763
STARLINK-1302,45375,53.0447,0.0005352,15.65331738,368.67202850569083,375.8976800585142,1 45375U 20019R   26140.77424151  .00031301  00000+0  31285-3 0  9999,2 45375  53.0447 160.5726 0005352  13.1363 346.9790 15.65331738341196
STARLINK-1304,45376,53.0429,0.0006508,15.60132029,382.8724332899892,391.6782940225248,1 45376U 20019S   26140.78433606  .00050793  00000+0  61578-3 0  9990,2 45376  53.0429 161.2136 0006508  12.2381 347.8788 15.60132029341187
STARLINK-1305,45377,53.0372,0.0001539,15.68870479,361.0928822712385,363.16753651829004,1 45377U 20019T   26141.00002315  .00356444  00000+0  29213-2 0  9997,2 45377  53.0372 139.8487 0001539 121.9297  71.2848 15.68870479  5917
STARLINK-1319,45379,53.0393,0.0005164,15.74231765,343.34540546825247,350.2909391702242,1 45379U 20019V   26140.93281677  .00053386  00000+0  36556-3 0  9998,2 45379  53.0393 132.6047 0005164  32.6501 327.4836 15.74231765341607
STARLINK-1266,45383,53.0447,0.0005697,15.56269594,394.6039555458292,402.3252153923122,1 45383U 20019Z   26140.30770224  .00055714  00000+0  77984-3 0  9992,2 45383  53.0447 148.7048 0005697   2.7104 357.3937 15.56269594341312
STARLINK-1267,45384,53.0454,0.0007697,15.62385408,375.56644253389095,385.9711020797804,1 45384U 20019AA  26140.28700856  .00063744  00000+0  70572-3 0  9992,2 45384  53.0454 140.1649 0007697  42.4389 317.7218 15.62385408341437
STARLINK-1272,45386,53.0398,0.0008761,15.67490794,360.17614705579945,371.9933724232151,1 45386U 20019AC  26140.93515019  .00039602  00000+0  36085-3 0  9998,2 45386  53.0398 116.3665 0008761  35.5090 324.6507 15.67490794341825
STARLINK-1274,45387,53.0226,0.0009566,15.58232418,386.29558383981475,399.24968815540524,1 45387U 20019AD  26140.22257760  .00047165  00000+0  61449-3 0  9992,2 45387  53.0226 117.9631 0009566  58.7630 301.4317 15.58232418341736
STARLINK-1280,45388,53.037,0.0006072,15.74913602,340.79483406386043,348.9592623239869,1 45388U 20019AE  26140.95141368  .00055466  00000+0  36842-3 0  9991,2 45388  53.0370 124.9779 0006072  43.0936 317.0557 15.74913602341696
STARLINK-1283,45389,53.0401,0.000461,15.68672608,359.5894806364604,365.8045295891743,1 45389U 20019AF  26140.64919808  .00042345  00000+0  36776-3 0  9998,2 45389  53.0401 117.0368 0004610  59.8786 300.2686 15.68672608341792
STARLINK-1284,45390,53.0402,0.0005168,15.6766555,362.0983861862169,369.0686957373546,1 45390U 20019AG  26140.27118595  .00041018  00000+0  37132-3 0  9996,2 45390  53.0402 142.6314 0005168 351.2812   8.8113 15.67665550341397
STARLINK-1297,45395,53.0412,0.000695,15.66146551,365.25339151322805,374.63322314041125,1 45395U 20019AM  26140.90487095  .00035797  00000+0  34524-3 0  9994,2 45395  53.0412 138.3274 0006950   1.0582 359.0446 15.66146551340690
STARLINK-1307,45397,53.0519,0.0002605,15.55230339,399.7170539175586,403.24923601308546,1 45397U 20019AP  26140.44330952  .00023054  00000+0  34095-3 0  9990,2 45397  53.0519 144.9698 0002605  40.0795 320.0407 15.55230339341204
STARLINK-1255,45399,53.0354,0.0006526,15.63318023,373.6713298200002,382.4895448191901,1 45399U 20019AR  26140.65049005  .00066381  00000+0  70846-3 0  9995,2 45399  53.0354 113.0384 0006526  48.5754 311.5819 15.63318023341653
STARLINK-1260,45404,53.1556,0.0005988,15.35881659,454.2093178103987,462.39663832813403,1 45404U 20019AW  26140.35282213  .00026402  00000+0  75316-3 0  9996,2 45404  53.1556 155.0018 0005988  21.7281 338.3976 15.35881659340967
STARLINK-1263,45405,53.1566,0.0004527,15.33370972,462.6652048556334,468.86167231272793,1 45405U 20019AX  26140.74713647  .00022100  00000+0  68499-3 0  9995,2 45405  53.1566 154.0660 0004527  39.2769 320.8561 15.33370972341016
STARLINK-1265,45406,53.1557,0.0005569,15.3626522,453.3584434384811,460.97160283184985,1 45406U 20019AY  26140.74017491  .00018089  00000+0  51372-3 0  9993,2 45406  53.1557 153.2250 0005569  15.0866 345.0302 15.36265220341025
STARLINK-1278,45408,53.0393,0.0007077,15.66895025,363.0200932290436,372.56828423357274,1 45408U 20019BA  26140.24018589  .00039260  00000+0  36675-3 0  9992,2 45408  53.0393 140.6561 0007077  18.9455 341.1822 15.66895025341143
STARLINK-1296,45412,53.1552,0.0006386,15.36465502,452.2063669094323,460.9356559816506,1 45412U 20019BE  26140.45711565  .00018703  00000+0  52730-3 0  9993,2 45412  53.1552 154.2723 0006386  12.1342 347.9814 15.36465502340986
STARLINK-1309,45414,53.0607,0.0006857,15.66252502,365.0120326638289,374.2659326464427,1 45414U 20019BG  26140.95201382  .00033638  00000+0  32347-3 0  9997,2 45414  53.0607 130.9361 0006857   0.6505 359.4517 15.66252502341327
